     2.12           N: GPS NAV DATA                         RINEX VERSION / TYPE
RTKCONV 2.4.2                           20150401 035300 UTC PGM / RUN BY / DATE 
log: D:\auto_jyr_matt.ubx                                   COMMENT             
format: u-blox                                              COMMENT             
                                                            END OF HEADER       
28 15  3 31  0  0  0.0  .429595820606E-03  .261479726760E-11  .000000000000E+00
     .500000000000E+02  .635937500000E+02  .389301930274E-08  .240709059806E+01
     .315532088280E-05  .195754014421E-01  .774487853050E-05  .515369295311E+04
     .172800000000E+06  .163912773132E-06 -.295557615225E+01 -.206753611565E-06
     .988897360870E+00  .238687500000E+03 -.166538856152E+01 -.747924011180E-08
     .205365697163E-09  .100000000000E+01  .183800000000E+04  .000000000000E+00
     .240000000000E+01  .000000000000E+00 -.111758708954E-07  .500000000000E+02
     .165636000000E+06  .400000000000E+01
 7 15  3 31  0  0  0.0  .451727304608E-03  .284217094304E-11  .000000000000E+00
     .107000000000E+03 -.185937500000E+02  .421588989445E-08 -.115016959768E+01
    -.101327896118E-05  .813431222923E-02  .101067125797E-04  .515372983360E+04
     .172800000000E+06  .139698386192E-06  .223624118956E+01 -.819563865662E-07
     .970711159136E+00  .186218750000E+03 -.275790218046E+01 -.785568436364E-08
    -.193222334200E-09  .100000000000E+01  .183800000000E+04  .000000000000E+00
     .340000000000E+01  .000000000000E+00 -.111758708954E-07  .107000000000E+03
     .165666000000E+06  .400000000000E+01
30 15  3 31  0  0  0.0 -.759004615247E-04  .329691829393E-11  .000000000000E+00
     .690000000000E+02 -.163437500000E+02  .450697344782E-08 -.977006016634E+00
    -.979751348495E-06  .116567802615E-02  .103805214167E-04  .515376100540E+04
     .172800000000E+06  .000000000000E+00  .228638276379E+01 -.558793544769E-08
     .956463053874E+00  .175406250000E+03  .284893117538E+01 -.802962018020E-08
    -.205722854897E-09  .100000000000E+01  .183800000000E+04  .000000000000E+00
     .240000000000E+01  .000000000000E+00  .325962901115E-08  .690000000000E+02
     .165666000000E+06  .400000000000E+01
20 15  3 31  0  0  0.0  .305234920233E-03  .397903932026E-11  .000000000000E+00
     .550000000000E+02  .369687500000E+02  .512128475064E-08  .220870388966E+01
     .191293656826E-05  .573887850624E-02  .943057239056E-05  .515578116608E+04
     .172800000000E+06  .782310962677E-07  .455567874973E-01 -.128522515297E-06
     .926824640801E+00  .179187500000E+03  .122264179422E+01 -.824605776712E-08
     .359657838335E-09  .100000000000E+01  .183800000000E+04  .000000000000E+00
     .240000000000E+01  .000000000000E+00 -.838190317154E-08  .550000000000E+02
     .165666000000E+06  .400000000000E+01
16 15  3 31  0  0  0.0 -.143244862556E-03  .352429196937E-11  .000000000000E+00
     .340000000000E+02  .685000000000E+02  .399159483738E-08  .249847296084E+01
     .353157520294E-05  .822867837269E-02  .813975930214E-05  .515377494240E+04
     .172800000000E+06 -.173225998878E-06 -.296098304773E+01 -.372529029846E-07
     .990299052902E+00  .240062500000E+03  .263035394606E+00 -.775532304033E-08
     .336085427879E-09  .100000000000E+01  .183800000000E+04  .000000000000E+00
     .240000000000E+01  .000000000000E+00 -.102445483208E-07  .340000000000E+02
     .165666000000E+06  .400000000000E+01
10 15  3 31  0  0  0.0 -.169107690454E-03 -.136424205266E-11  .000000000000E+00
     .210000000000E+02  .398125000000E+02  .472269671927E-08  .272973730333E+01
     .197999179363E-05  .146087632747E-01  .926665961742E-05  .515367644501E+04
     .172800000000E+06  .577419996262E-07  .125426083014E+00 -.180676579475E-06
     .941855614970E+00  .188906250000E+03  .925290442038E+00 -.791247244338E-08
     .388587614805E-09  .100000000000E+01  .183800000000E+04  .000000000000E+00
     .240000000000E+01  .000000000000E+00 -.325962901115E-08  .210000000000E+02
     .165756000000E+06  .400000000000E+01
19 15  3 30 23 59 44.0 -.505743082613E-03 -.125055521494E-11  .000000000000E+00
     .100000000000E+02 -.330000000000E+02  .477984195675E-08  .801868618235E+00
    -.142864882946E-05  .111484039808E-01  .375136733055E-05  .515370790291E+04
     .172784000000E+06 -.316649675369E-07 -.188391416155E+01  .169500708580E-06
     .968586599783E+00  .308625000000E+03  .525306841687E+00 -.849178228825E-08
    -.313941648358E-09  .100000000000E+01  .183800000000E+04  .000000000000E+00
     .240000000000E+01  .000000000000E+00 -.149011611938E-07  .100000000000E+02
     .165876000000E+06  .400000000000E+01
 5 15  3 31  0  0  0.0 -.260053668171E-03  .488853402203E-11  .000000000000E+00
     .700000000000E+02  .410000000000E+02  .474626912973E-08  .235648438935E+01
     .212341547012E-05  .402808596846E-02  .908598303795E-05  .515380134583E+04
     .172800000000E+06 -.689178705215E-07  .110009648949E+00 -.298023223877E-07
     .947067245998E+00  .198281250000E+03  .402003591783E+00 -.813641034272E-08
     .330370904131E-09  .100000000000E+01  .183800000000E+04  .000000000000E+00
     .240000000000E+01  .000000000000E+00 -.107102096081E-07  .700000000000E+02
     .166716000000E+06  .400000000000E+01
11 15  3 31  0  0  0.0 -.567993614823E-03 -.261479726760E-11  .000000000000E+00
     .640000000000E+02 -.854062500000E+02  .626847539288E-08 -.108530774091E+01
    -.425986945629E-05  .156535166316E-01  .703148543835E-05  .515373034286E+04
     .172800000000E+06 -.137835741043E-06 -.127056510773E+01  .353902578354E-06
     .892472999723E+00  .205250000000E+03  .139021574523E+01 -.915502420065E-08
    -.403231081907E-09  .100000000000E+01  .183800000000E+04  .000000000000E+00
     .240000000000E+01  .000000000000E+00 -.121071934700E-07  .640000000000E+02
     .167226000000E+06  .400000000000E+01
